OBJECT_NAME,OBJECT_ID,EPOCH,MEAN_MOTION,ECCENTRICITY,INCLINATION,RA_OF_ASC_NODE,ARG_OF_PERICENTER,MEAN_ANOMALY,EPHEMERIS_TYPE,CLASSIFICATION_TYPE,NORAD_CAT_ID,ELEMENT_SET_NO,REV_AT_EPOCH,BSTAR,MEAN_MOTION_DOT,MEAN_MOTION_DDOT
OSCAR 7 (AO-7),1974-089B,2026-06-28T23:09:19.285920,12.53698303,.00126444,101.9899,193.3341,108.2941,6.1955,0,U,7530,999,36199,.11545417E-3,-.28E-6,0
PHASE 3B (AO-10),1983-058B,2026-06-26T14:17:11.121504,2.05872938,.60076223,25.9202,218.0092,118.2548,314.1516,0,U,14129,999,29568,0,-.217E-5,0
UOSAT 2 (UO-11),1984-021B,2026-06-28T21:36:17.186688,14.90811696,.0008606,97.8064,145.3443,136.5806,223.6091,0,U,14781,999,25887,.13493456E-3,.1272E-4,0
LUSAT (LO-19),1990-005G,2026-06-28T14:58:35.623488,14.34126405,.00117829,98.8846,201.7446,167.3246,192.8236,0,U,20442,999,90403,.55609078E-4,.109E-5,0
EYESAT A (AO-27),1993-061C,2026-06-28T17:55:46.872192,14.30945093,.00094444,98.6877,247.1562,69.9517,290.2682,0,U,22825,999,70865,.49172741E-4,.85E-6,0
ITAMSAT (IO-26),1993-061D,2026-06-28T22:23:08.884608,14.31372383,.00098012,98.6824,247.2605,54.2852,305.9241,0,U,22826,999,70899,.51029751E-4,.91E-6,0
RADIO ROSTO (RS15),1994-085A,2026-06-28T17:37:19.379712,11.27583385,.0156334,64.8176,284.5419,1.7428,358.4010,0,U,23439,999,29720,-.88474067E-4,-.46E-6,0
JAS-2 (FO-29),1996-046B,2026-06-28T13:10:37.635744,13.53274843,.03508692,98.5229,26.8641,67.0358,296.7398,0,U,24278,999,47470,.14056145E-4,-.19E-6,0
TECHSAT 1B (GO-32),1998-043D,2026-06-28T22:27:02.729664,14.24430601,.00016437,99.0072,172.9906,141.4030,218.7265,0,U,25397,999,45300,.42491064E-4,.52E-6,0
ISS (ZARYA),1998-067A,2026-06-28T16:05:22.337952,15.49468267,.00042679,51.6320,243.2491,243.5322,116.5229,0,U,25544,999,57353,.10963493E-3,.5693E-4,0
PCSAT (NO-44),2001-043C,2026-06-28T13:03:30.145824,14.31959587,.00060398,67.0491,214.8978,265.3473,94.6939,0,U,26931,999,29207,.6516455E-4,.92E-6,0
SAUDISAT 1C (SO-50),2002-058C,2026-06-28T22:56:26.738592,14.83070324,.00749887,64.5520,92.5735,260.2770,98.9861,0,U,27607,999,26620,.12106093E-3,.88E-5,0
CUTE-1 (CO-55),2003-031E,2026-06-28T11:42:06.909408,14.24342303,.00102213,98.6736,187.9043,146.4668,213.7159,0,U,27844,999,19328,.13667046E-3,.272E-5,0
CUBESAT XI-IV (CO-57),2003-031J,2026-06-28T13:14:52.243584,14.23626546,.00097074,98.6768,187.6716,163.9321,196.2167,0,U,27848,999,19299,.11941018E-3,.229E-5,0
MOZHAETS 4 (RS22),2003-042A,2026-06-28T23:29:31.634304,14.73489146,.00101179,98.3466,4.6711,227.4532,293.1661,0,U,27939,999,21728,.22526755E-3,.141E-4,0
CUBESAT XI-V,2005-043F,2026-06-28T16:21:30.681504,14.72661458,.00144469,98.2995,335.5454,164.3904,195.7751,0,U,28895,999,10344,.22952897E-3,.1412E-4,0
CUTE-1.7+APD II (CO-65),2008-021C,2026-06-28T21:58:22.524672,15.09559374,.0008562,97.8271,161.5787,1.2386,358.8861,0,U,32785,999,98696,.29488651E-3,.467E-4,0
SEEDS II (CO-66),2008-021J,2026-06-28T22:48:48.402144,15.33144634,.0000917,97.7514,178.4126,200.7321,159.3883,0,U,32791,999,98909,.54621038E-3,.17427E-3,0
YUBILEINY (RS30),2008-025A,2026-06-28T22:17:22.831008,12.43180281,.00185239,82.5041,348.1349,286.7909,73.1139,0,U,32953,999,82115,.52496551E-3,.83E-6,0
KKS-1 (KISEKI),2009-002H,2026-06-28T20:39:22.905792,14.83152106,.00064234,98.1186,102.4879,249.5116,110.5407,0,U,33499,999,93792,.15977211E-3,.1248E-4,0
SWISSCUBE,2009-051B,2026-06-28T17:32:49.692480,14.62502262,.00067983,98.4027,87.8203,165.5410,194.5986,0,U,35932,999,89084,.19405545E-3,.934E-5,0
BEESAT-1,2009-051C,2026-06-28T16:16:30.433728,14.61737811,.00049895,98.3955,87.3776,176.9996,183.1235,0,U,35933,999,89086,.16738742E-3,.785E-5,0
ITUPSAT1,2009-051E,2026-06-28T13:00:34.167168,14.60456331,.0006875,98.4040,86.4193,194.0038,166.0972,0,U,35935,999,89039,.15671078E-3,.711E-5,0
XIWANG-1 (HOPE-1),2009-072B,2026-06-28T22:44:45.333024,13.16437947,.00071207,100.4024,133.5924,202.6685,157.4115,0,U,36122,999,79455,-.76244725E-3,-.336E-5,0
O/OREOS (USA 219),2010-062C,2026-06-28T17:09:15.335712,14.93790940,.0013001,71.9712,54.2272,38.4186,321.7908,0,U,37224,999,11836,.19961488E-3,.2058E-4,0
JUGNU,2011-058B,2026-06-28T12:48:23.131584,14.13779476,.00184121,19.9595,239.4959,201.2516,297.0567,0,U,37839,999,76063,.70931175E-4,.403E-5,0
SRMSAT,2011-058D,2026-06-28T19:22:22.556928,14.11577875,.00117497,19.9735,349.1375,332.2433,55.7265,0,U,37841,999,75946,.58225428E-4,.372E-5,0
STRAND-1,2013-009E,2026-06-28T18:03:31.375872,14.37169921,.00083797,98.3924,359.7023,188.3132,171.7918,0,U,39090,999,69872,.10650495E-3,.274E-5,0
ZACUBE-1 (TSHEPISOSAT),2013-066B,2026-06-28T22:31:24.567456,15.01250622,.00424483,97.8045,142.3355,207.8298,152.0656,0,U,39417,999,68249,.21285344E-3,.2723E-4,0
GOMX-1,2013-066Q,2026-06-28T19:54:48.190752,14.69499060,.01296662,97.6480,19.5579,40.5883,320.4903,0,U,39430,999,67162,.2662331E-3,.1745E-4,0
